ICEYE-X53               
1 64584U 25135BJ  26190.82495912  .00000246  00000+0  24073-4 0  9992
2 64584  97.7367 307.5090 0001726 166.1726 193.9545 15.00874290 57472
ICEYE-X65               
1 66300U 25248H   26189.94577031  .00001970  00000+0  14234-3 0  9991
2 66300  45.4054  19.7638 0004843 164.1787 195.9246 15.07903294 38801
ICEYE-X66               
1 66301U 25248J   26189.94864108  .00001929  00000+0  13518-3 0  9994
2 66301  45.4021  18.8951 0004484 159.8840 200.2219 15.09150446 38799
ICEYE-X67               
1 66302U 25248K   26189.24509329  .00001799  00000+0  12721-3 0  9999
2 66302  45.4058  22.1771 0005971 156.3678 203.7480 15.09128573 38706
ICEYE-X58               
1 66751U 25276CP  26190.14629772  .00001729  00000+0  90140-4 0  9999
2 66751  97.4196 263.1491 0001798 248.7500 111.3542 15.17287161 33743
ICEYE-X59               
1 66752U 25276CQ  26190.07829541  .00003066  00000+0  24645-3 0  9990
2 66752  97.4373 260.4411 0000473 144.1776 215.9481 15.00717042 33556
ICEYE-X60               
1 66753U 25276CR  26189.77669178  .00002521  00000+0  15423-3 0  9993
2 66753  97.4297 261.7945 0000706 344.3487  15.7721 15.11110867 33625
ICEYE-X61               
1 66754U 25276CS  26190.56501065  .00002194  00000+0  10936-3 0  9993
2 66754  97.4194 263.6381 0001663 244.2708 115.8355 15.18588896 33818
ICEYE-X62               
1 66755U 25276CT  26189.73169495  .00001479  00000+0  94519-4 0  9993
2 66755  97.4194 261.2654 0000783 320.3388  39.7785 15.10117598 33582
ICEYE-X63               
1 67372U 26004K   26189.93191726  .00000669  00000+0  78159-4 0  9995
2 67372  97.8009 188.2319 0005711  67.0565 293.1254 14.88341294 26531
ICEYE-X64               
1 67373U 26004L   26190.71881463  .00000880  00000+0  10186-3 0  9998
2 67373  97.8023 188.9280 0007506  68.6078 291.5939 14.87978924 26641
ICEYE-X71               
1 68494U 26067CG  26190.59988441  .00001201  00000+0  12465-3 0  9992
2 68494  97.7615 148.4919 0001526   5.0801 355.0433 14.91776837 15060
ICEYE-X73               
1 68496U 26067CJ  26190.69671888  .00002126  00000+0  21349-3 0  9997
2 68496  97.7612 148.6687 0001099 155.5279 204.5992 14.92333974 15080
ICEYE-X75               
1 68497U 26067CK  26190.29822384  .00000957  00000+0  99518-4 0  9997
2 68497  97.7603 148.2459 0000920 152.5969 207.5299 14.92166447 15025
ICEYE-X74               
1 68500U 26067CN  26189.86118841  .00001117  00000+0  11638-3 0  9994
2 68500  97.7622 147.7742 0001425   4.7683 355.3549 14.91775180 14952
ICEYE-X76               
1 68502U 26067CQ  26190.59476962  .00000518  00000+0  56927-4 0  9994
2 68502  97.7637 148.5145 0001035 351.4142   8.7058 14.91743809 15065
