{"fetched_at":"2026-07-10T07:59:05.177Z","source":"https://celestrak.org/NORAD/elements/gp.php?NAME=ICEYE&FORMAT=JSON","constellation":"iceye","records":[{"OBJECT_NAME":"ICEYE-X53","OBJECT_ID":"2025-135BJ","EPOCH":"2026-07-09T19:47:56.467968","CLASSIFICATION_TYPE":"U","MEAN_MOTION":15.0087429,"ECCENTRICITY":0.0001726,"INCLINATION":97.7367,"RA_OF_ASC_NODE":307.509,"ARG_OF_PERICENTER":166.1726,"MEAN_ANOMALY":193.9545,"EPHEMERIS_TYPE":0,"NORAD_CAT_ID":64584,"ELEMENT_SET_NO":999,"REV_AT_EPOCH":5747,"BSTAR":0.000024073,"MEAN_MOTION_DOT":0.00000246,"MEAN_MOTION_DDOT":0},{"OBJECT_NAME":"ICEYE-X65","OBJECT_ID":"2025-248H","EPOCH":"2026-07-08T22:41:54.554784","CLASSIFICATION_TYPE":"U","MEAN_MOTION":15.07903294,"ECCENTRICITY":0.00048434,"INCLINATION":45.4054,"RA_OF_ASC_NODE":19.7638,"ARG_OF_PERICENTER":164.1787,"MEAN_ANOMALY":195.9246,"EPHEMERIS_TYPE":0,"NORAD_CAT_ID":66300,"ELEMENT_SET_NO":999,"REV_AT_EPOCH":3880,"BSTAR":0.0001423371,"MEAN_MOTION_DOT":0.0000197,"MEAN_MOTION_DDOT":0},{"OBJECT_NAME":"ICEYE-X66","OBJECT_ID":"2025-248J","EPOCH":"2026-07-08T22:46:02.589312","CLASSIFICATION_TYPE":"U","MEAN_MOTION":15.09150446,"ECCENTRICITY":0.00044842,"INCLINATION":45.4021,"RA_OF_ASC_NODE":18.8951,"ARG_OF_PERICENTER":159.884,"MEAN_ANOMALY":200.2219,"EPHEMERIS_TYPE":0,"NORAD_CAT_ID":66301,"ELEMENT_SET_NO":999,"REV_AT_EPOCH":3879,"BSTAR":0.00013517921,"MEAN_MOTION_DOT":0.00001929,"MEAN_MOTION_DDOT":0},{"OBJECT_NAME":"ICEYE-X67","OBJECT_ID":"2025-248K","EPOCH":"2026-07-08T05:52:56.060256","CLASSIFICATION_TYPE":"U","MEAN_MOTION":15.09128573,"ECCENTRICITY":0.00059712,"INCLINATION":45.4058,"RA_OF_ASC_NODE":22.1771,"ARG_OF_PERICENTER":156.3678,"MEAN_ANOMALY":203.748,"EPHEMERIS_TYPE":0,"NORAD_CAT_ID":66302,"ELEMENT_SET_NO":999,"REV_AT_EPOCH":3870,"BSTAR":0.00012721252,"MEAN_MOTION_DOT":0.00001799,"MEAN_MOTION_DDOT":0},{"OBJECT_NAME":"ICEYE-X58","OBJECT_ID":"2025-276CP","EPOCH":"2026-07-09T03:30:40.123008","CLASSIFICATION_TYPE":"U","MEAN_MOTION":15.17287161,"ECCENTRICITY":0.00017987,"INCLINATION":97.4196,"RA_OF_ASC_NODE":263.1491,"ARG_OF_PERICENTER":248.75,"MEAN_ANOMALY":111.3542,"EPHEMERIS_TYPE":0,"NORAD_CAT_ID":66751,"ELEMENT_SET_NO":999,"REV_AT_EPOCH":3374,"BSTAR":0.000090139807,"MEAN_MOTION_DOT":0.00001729,"MEAN_MOTION_DDOT":0},{"OBJECT_NAME":"ICEYE-X59","OBJECT_ID":"2025-276CQ","EPOCH":"2026-07-09T01:52:44.723424","CLASSIFICATION_TYPE":"U","MEAN_MOTION":15.00717042,"ECCENTRICITY":0.00004733,"INCLINATION":97.4373,"RA_OF_ASC_NODE":260.4411,"ARG_OF_PERICENTER":144.1776,"MEAN_ANOMALY":215.9481,"EPHEMERIS_TYPE":0,"NORAD_CAT_ID":66752,"ELEMENT_SET_NO":999,"REV_AT_EPOCH":3355,"BSTAR":0.00024645498,"MEAN_MOTION_DOT":0.00003066,"MEAN_MOTION_DDOT":0},{"OBJECT_NAME":"ICEYE-X60","OBJECT_ID":"2025-276CR","EPOCH":"2026-07-08T18:38:26.169792","CLASSIFICATION_TYPE":"U","MEAN_MOTION":15.11110867,"ECCENTRICITY":0.00007068,"INCLINATION":97.4297,"RA_OF_ASC_NODE":261.7945,"ARG_OF_PERICENTER":344.3487,"MEAN_ANOMALY":15.7721,"EPHEMERIS_TYPE":0,"NORAD_CAT_ID":66753,"ELEMENT_SET_NO":999,"REV_AT_EPOCH":3362,"BSTAR":0.00015423119,"MEAN_MOTION_DOT":0.00002521,"MEAN_MOTION_DDOT":0},{"OBJECT_NAME":"ICEYE-X61","OBJECT_ID":"2025-276CS","EPOCH":"2026-07-09T13:33:36.920160","CLASSIFICATION_TYPE":"U","MEAN_MOTION":15.18588896,"ECCENTRICITY":0.0001663,"INCLINATION":97.4194,"RA_OF_ASC_NODE":263.6381,"ARG_OF_PERICENTER":244.2708,"MEAN_ANOMALY":115.8355,"EPHEMERIS_TYPE":0,"NORAD_CAT_ID":66754,"ELEMENT_SET_NO":999,"REV_AT_EPOCH":3381,"BSTAR":0.00010936,"MEAN_MOTION_DOT":0.00002194,"MEAN_MOTION_DDOT":0},{"OBJECT_NAME":"ICEYE-X62","OBJECT_ID":"2025-276CT","EPOCH":"2026-07-08T17:33:38.443680","CLASSIFICATION_TYPE":"U","MEAN_MOTION":15.10117598,"ECCENTRICITY":0.00007834,"INCLINATION":97.4194,"RA_OF_ASC_NODE":261.2654,"ARG_OF_PERICENTER":320.3388,"MEAN_ANOMALY":39.7785,"EPHEMERIS_TYPE":0,"NORAD_CAT_ID":66755,"ELEMENT_SET_NO":999,"REV_AT_EPOCH":3358,"BSTAR":0.000094518905,"MEAN_MOTION_DOT":0.00001479,"MEAN_MOTION_DDOT":0},{"OBJECT_NAME":"ICEYE-X63","OBJECT_ID":"2026-004K","EPOCH":"2026-07-08T22:21:57.651264","CLASSIFICATION_TYPE":"U","MEAN_MOTION":14.88341294,"ECCENTRICITY":0.00057119,"INCLINATION":97.8009,"RA_OF_ASC_NODE":188.2319,"ARG_OF_PERICENTER":67.0565,"MEAN_ANOMALY":293.1254,"EPHEMERIS_TYPE":0,"NORAD_CAT_ID":67372,"ELEMENT_SET_NO":999,"REV_AT_EPOCH":2653,"BSTAR":0.000078158878,"MEAN_MOTION_DOT":0.00000669,"MEAN_MOTION_DDOT":0},{"OBJECT_NAME":"ICEYE-X64","OBJECT_ID":"2026-004L","EPOCH":"2026-07-09T17:15:05.584032","CLASSIFICATION_TYPE":"U","MEAN_MOTION":14.87978924,"ECCENTRICITY":0.0007506,"INCLINATION":97.8023,"RA_OF_ASC_NODE":188.928,"ARG_OF_PERICENTER":68.6078,"MEAN_ANOMALY":291.5939,"EPHEMERIS_TYPE":0,"NORAD_CAT_ID":67373,"ELEMENT_SET_NO":999,"REV_AT_EPOCH":2664,"BSTAR":0.00010186,"MEAN_MOTION_DOT":0.0000088,"MEAN_MOTION_DDOT":0},{"OBJECT_NAME":"ICEYE-X71","OBJECT_ID":"2026-067CG","EPOCH":"2026-07-09T14:23:50.013024","CLASSIFICATION_TYPE":"U","MEAN_MOTION":14.91776837,"ECCENTRICITY":0.0001526,"INCLINATION":97.7615,"RA_OF_ASC_NODE":148.4919,"ARG_OF_PERICENTER":5.0801,"MEAN_ANOMALY":355.0433,"EPHEMERIS_TYPE":0,"NORAD_CAT_ID":68494,"ELEMENT_SET_NO":999,"REV_AT_EPOCH":1506,"BSTAR":0.00012465,"MEAN_MOTION_DOT":0.00001201,"MEAN_MOTION_DDOT":0},{"OBJECT_NAME":"ICEYE-X73","OBJECT_ID":"2026-067CJ","EPOCH":"2026-07-09T16:43:16.511232","CLASSIFICATION_TYPE":"U","MEAN_MOTION":14.92333974,"ECCENTRICITY":0.0001099,"INCLINATION":97.7612,"RA_OF_ASC_NODE":148.6687,"ARG_OF_PERICENTER":155.5279,"MEAN_ANOMALY":204.5992,"EPHEMERIS_TYPE":0,"NORAD_CAT_ID":68496,"ELEMENT_SET_NO":999,"REV_AT_EPOCH":1508,"BSTAR":0.00021349,"MEAN_MOTION_DOT":0.00002126,"MEAN_MOTION_DDOT":0},{"OBJECT_NAME":"ICEYE-X75","OBJECT_ID":"2026-067CK","EPOCH":"2026-07-09T07:09:26.539776","CLASSIFICATION_TYPE":"U","MEAN_MOTION":14.92166447,"ECCENTRICITY":0.00009209,"INCLINATION":97.7603,"RA_OF_ASC_NODE":148.2459,"ARG_OF_PERICENTER":152.5969,"MEAN_ANOMALY":207.5299,"EPHEMERIS_TYPE":0,"NORAD_CAT_ID":68497,"ELEMENT_SET_NO":999,"REV_AT_EPOCH":1502,"BSTAR":0.000099517884,"MEAN_MOTION_DOT":0.00000957,"MEAN_MOTION_DDOT":0},{"OBJECT_NAME":"ICEYE-X74","OBJECT_ID":"2026-067CN","EPOCH":"2026-07-08T20:40:06.678624","CLASSIFICATION_TYPE":"U","MEAN_MOTION":14.9177518,"ECCENTRICITY":0.00014253,"INCLINATION":97.7622,"RA_OF_ASC_NODE":147.7742,"ARG_OF_PERICENTER":4.7683,"MEAN_ANOMALY":355.3549,"EPHEMERIS_TYPE":0,"NORAD_CAT_ID":68500,"ELEMENT_SET_NO":999,"REV_AT_EPOCH":1495,"BSTAR":0.00011638138,"MEAN_MOTION_DOT":0.00001117,"MEAN_MOTION_DDOT":0},{"OBJECT_NAME":"ICEYE-X76","OBJECT_ID":"2026-067CQ","EPOCH":"2026-07-09T14:16:28.095168","CLASSIFICATION_TYPE":"U","MEAN_MOTION":14.91743809,"ECCENTRICITY":0.0001035,"INCLINATION":97.7637,"RA_OF_ASC_NODE":148.5145,"ARG_OF_PERICENTER":351.4142,"MEAN_ANOMALY":8.7058,"EPHEMERIS_TYPE":0,"NORAD_CAT_ID":68502,"ELEMENT_SET_NO":999,"REV_AT_EPOCH":1506,"BSTAR":0.000056927,"MEAN_MOTION_DOT":0.00000518,"MEAN_MOTION_DDOT":0}]}
